CCSDS_OMM_VERS = 2.0
CREATION_DATE  = 
ORIGINATOR     = 

OBJECT_NAME    = SL-14 R/B
OBJECT_ID      = 1991-042B
CENTER_NAME    = EARTH
REF_FRAME      = TEME
TIME_SYSTEM    = UTC
MEAN_ELEMENT_THEORY = SGP/SGP4

EPOCH          = 2025-12-09T00:00:27.591840
MEAN_MOTION    = 14.81733121
ECCENTRICITY   = .0017107
INCLINATION    = 82.4922
RA_OF_ASC_NODE = 305.2296
ARG_OF_PERICENTER = 173.8079
MEAN_ANOMALY   = 186.3350

EPHEMERIS_TYPE = 0
CLASSIFICATION_TYPE = U
NORAD_CAT_ID   = 21423
ELEMENT_SET_NO = 999
REV_AT_EPOCH   = 83964
BSTAR          = .88656E-4
MEAN_MOTION_DOT = .723E-5
MEAN_MOTION_DDOT = 0

CCSDS_OMM_VERS = 2.0
CREATION_DATE  = 
ORIGINATOR     = 

OBJECT_NAME    = ERS-1
OBJECT_ID      = 1991-050A
CENTER_NAME    = EARTH
REF_FRAME      = TEME
TIME_SYSTEM    = UTC
MEAN_ELEMENT_THEORY = SGP/SGP4

EPOCH          = 2025-12-09T01:15:46.499328
MEAN_MOTION    = 14.39359690
ECCENTRICITY   = .0032936
INCLINATION    = 98.7905
RA_OF_ASC_NODE = 354.0151
ARG_OF_PERICENTER = 110.6102
MEAN_ANOMALY   = 249.8622

EPHEMERIS_TYPE = 0
CLASSIFICATION_TYPE = U
NORAD_CAT_ID   = 21574
ELEMENT_SET_NO = 999
REV_AT_EPOCH   = 80269
BSTAR          = .16694E-3
MEAN_MOTION_DOT = .476E-5
MEAN_MOTION_DDOT = 0

CCSDS_OMM_VERS = 2.0
CREATION_DATE  = 
ORIGINATOR     = 

OBJECT_NAME    = ARIANE 40 R/B
OBJECT_ID      = 1991-050F
CENTER_NAME    = EARTH
REF_FRAME      = TEME
TIME_SYSTEM    = UTC
MEAN_ELEMENT_THEORY = SGP/SGP4

EPOCH          = 2025-12-09T02:39:46.888704
MEAN_MOTION    = 14.42808497
ECCENTRICITY   = .0003013
INCLINATION    = 98.2168
RA_OF_ASC_NODE = 33.6723
ARG_OF_PERICENTER = 11.8247
MEAN_ANOMALY   = 348.3013

EPHEMERIS_TYPE = 0
CLASSIFICATION_TYPE = U
NORAD_CAT_ID   = 21610
ELEMENT_SET_NO = 999
REV_AT_EPOCH   = 80593
BSTAR          = .18274E-3
MEAN_MOTION_DOT = .568E-5
MEAN_MOTION_DDOT = 0

CCSDS_OMM_VERS = 2.0
CREATION_DATE  = 
ORIGINATOR     = 

OBJECT_NAME    = INTERCOSMOS 25
OBJECT_ID      = 1991-086A
CENTER_NAME    = EARTH
REF_FRAME      = TEME
TIME_SYSTEM    = UTC
MEAN_ELEMENT_THEORY = SGP/SGP4

EPOCH          = 2025-12-09T04:01:41.272320
MEAN_MOTION    = 12.11709945
ECCENTRICITY   = .1486847
INCLINATION    = 82.6072
RA_OF_ASC_NODE = 4.7354
ARG_OF_PERICENTER = 312.0978
MEAN_ANOMALY   = 36.2621

EPHEMERIS_TYPE = 0
CLASSIFICATION_TYPE = U
NORAD_CAT_ID   = 21819
ELEMENT_SET_NO = 999
REV_AT_EPOCH   = 48572
BSTAR          = .39851E-3
MEAN_MOTION_DOT = .2008E-4
MEAN_MOTION_DDOT = 0

CCSDS_OMM_VERS = 2.0
CREATION_DATE  = 
ORIGINATOR     = 

OBJECT_NAME    = SL-8 R/B
OBJECT_ID      = 1992-008B
CENTER_NAME    = EARTH
REF_FRAME      = TEME
TIME_SYSTEM    = UTC
MEAN_ELEMENT_THEORY = SGP/SGP4

EPOCH          = 2025-12-09T02:49:59.501856
MEAN_MOTION    = 13.75957708
ECCENTRICITY   = .0035397
INCLINATION    = 82.9262
RA_OF_ASC_NODE = 335.1405
ARG_OF_PERICENTER = 29.7345
MEAN_ANOMALY   = 40.6823

EPHEMERIS_TYPE = 0
CLASSIFICATION_TYPE = U
NORAD_CAT_ID   = 21876
ELEMENT_SET_NO = 999
REV_AT_EPOCH   = 69696
BSTAR          = .14383E-3
MEAN_MOTION_DOT = .155E-5
MEAN_MOTION_DDOT = 0

CCSDS_OMM_VERS = 2.0
CREATION_DATE  = 
ORIGINATOR     = 

OBJECT_NAME    = SL-8 R/B
OBJECT_ID      = 1992-020B
CENTER_NAME    = EARTH
REF_FRAME      = TEME
TIME_SYSTEM    = UTC
MEAN_ELEMENT_THEORY = SGP/SGP4

EPOCH          = 2025-12-09T03:23:37.828320
MEAN_MOTION    = 13.75526119
ECCENTRICITY   = .0028661
INCLINATION    = 82.9311
RA_OF_ASC_NODE = 220.9894
ARG_OF_PERICENTER = 188.3029
MEAN_ANOMALY   = 283.2148

EPHEMERIS_TYPE = 0
CLASSIFICATION_TYPE = U
NORAD_CAT_ID   = 21938
ELEMENT_SET_NO = 999
REV_AT_EPOCH   = 68868
BSTAR          = .11511E-3
MEAN_MOTION_DOT = .126E-5
MEAN_MOTION_DDOT = 0

CCSDS_OMM_VERS = 2.0
CREATION_DATE  = 
ORIGINATOR     = 

OBJECT_NAME    = USA 81
OBJECT_ID      = 1992-023A
CENTER_NAME    = EARTH
REF_FRAME      = TEME
TIME_SYSTEM    = UTC
MEAN_ELEMENT_THEORY = SGP/SGP4

EPOCH          = 2025-12-09T01:14:55.086144
MEAN_MOTION    = 14.32324745
ECCENTRICITY   = .0001564
INCLINATION    = 85.0084
RA_OF_ASC_NODE = 183.7031
ARG_OF_PERICENTER = 63.0602
MEAN_ANOMALY   = 297.0751

EPHEMERIS_TYPE = 0
CLASSIFICATION_TYPE = U
NORAD_CAT_ID   = 21949
ELEMENT_SET_NO = 999
REV_AT_EPOCH   = 8181
BSTAR          = .90087E-4
MEAN_MOTION_DOT = .263E-5
MEAN_MOTION_DDOT = 0

CCSDS_OMM_VERS = 2.0
CREATION_DATE  = 
ORIGINATOR     = 

OBJECT_NAME    = COSMOS 2219
OBJECT_ID      = 1992-076A
CENTER_NAME    = EARTH
REF_FRAME      = TEME
TIME_SYSTEM    = UTC
MEAN_ELEMENT_THEORY = SGP/SGP4

EPOCH          = 2025-12-09T01:06:29.195136
MEAN_MOTION    = 14.14062644
ECCENTRICITY   = .0019015
INCLINATION    = 71.0587
RA_OF_ASC_NODE = 207.5540
ARG_OF_PERICENTER = 331.8135
MEAN_ANOMALY   = 28.1956

EPHEMERIS_TYPE = 0
CLASSIFICATION_TYPE = U
NORAD_CAT_ID   = 22219
ELEMENT_SET_NO = 999
REV_AT_EPOCH   = 70556
BSTAR          = -.39626E-4
MEAN_MOTION_DOT = -.123E-5
MEAN_MOTION_DDOT = 0

CCSDS_OMM_VERS = 2.0
CREATION_DATE  = 
ORIGINATOR     = 

OBJECT_NAME    = SL-16 R/B
OBJECT_ID      = 1992-076B
CENTER_NAME    = EARTH
REF_FRAME      = TEME
TIME_SYSTEM    = UTC
MEAN_ELEMENT_THEORY = SGP/SGP4

EPOCH          = 2025-12-09T04:28:36.350976
MEAN_MOTION    = 14.16841163
ECCENTRICITY   = .0014928
INCLINATION    = 71.0011
RA_OF_ASC_NODE = 19.0172
ARG_OF_PERICENTER = 239.0159
MEAN_ANOMALY   = 178.9675

EPHEMERIS_TYPE = 0
CLASSIFICATION_TYPE = U
NORAD_CAT_ID   = 22220
ELEMENT_SET_NO = 999
REV_AT_EPOCH   = 70901
BSTAR          = -.58012E-4
MEAN_MOTION_DOT = -.164E-5
MEAN_MOTION_DDOT = 0

CCSDS_OMM_VERS = 2.0
CREATION_DATE  = 
ORIGINATOR     = 

OBJECT_NAME    = COSMOS 2221
OBJECT_ID      = 1992-080A
CENTER_NAME    = EARTH
REF_FRAME      = TEME
TIME_SYSTEM    = UTC
MEAN_ELEMENT_THEORY = SGP/SGP4

EPOCH          = 2025-12-09T03:19:23.949696
MEAN_MOTION    = 14.95738312
ECCENTRICITY   = .0015836
INCLINATION    = 82.5042
RA_OF_ASC_NODE = 5.7722
ARG_OF_PERICENTER = 132.7509
MEAN_ANOMALY   = 227.5048

EPHEMERIS_TYPE = 0
CLASSIFICATION_TYPE = U
NORAD_CAT_ID   = 22236
ELEMENT_SET_NO = 999
REV_AT_EPOCH   = 76725
BSTAR          = .23972E-3
MEAN_MOTION_DOT = .2702E-4
MEAN_MOTION_DDOT = 0

CCSDS_OMM_VERS = 2.0
CREATION_DATE  = 
ORIGINATOR     = 

OBJECT_NAME    = SL-16 R/B
OBJECT_ID      = 1992-093B
CENTER_NAME    = EARTH
REF_FRAME      = TEME
TIME_SYSTEM    = UTC
MEAN_ELEMENT_THEORY = SGP/SGP4

EPOCH          = 2025-12-08T23:57:52.447680
MEAN_MOTION    = 14.15426822
ECCENTRICITY   = .000208
INCLINATION    = 71.0202
RA_OF_ASC_NODE = 194.6493
ARG_OF_PERICENTER = 83.3880
MEAN_ANOMALY   = 276.7480

EPHEMERIS_TYPE = 0
CLASSIFICATION_TYPE = U
NORAD_CAT_ID   = 22285
ELEMENT_SET_NO = 999
REV_AT_EPOCH   = 70032
BSTAR          = .12317E-3
MEAN_MOTION_DOT = .193E-5
MEAN_MOTION_DDOT = 0

CCSDS_OMM_VERS = 2.0
CREATION_DATE  = 
ORIGINATOR     = 

OBJECT_NAME    = COSMOS 2228
OBJECT_ID      = 1992-094A
CENTER_NAME    = EARTH
REF_FRAME      = TEME
TIME_SYSTEM    = UTC
MEAN_ELEMENT_THEORY = SGP/SGP4

EPOCH          = 2025-12-09T03:31:41.098080
MEAN_MOTION    = 14.96701237
ECCENTRICITY   = .0016352
INCLINATION    = 82.5178
RA_OF_ASC_NODE = 323.9719
ARG_OF_PERICENTER = 244.5167
MEAN_ANOMALY   = 115.4364

EPHEMERIS_TYPE = 0
CLASSIFICATION_TYPE = U
NORAD_CAT_ID   = 22286
ELEMENT_SET_NO = 999
REV_AT_EPOCH   = 76251
BSTAR          = .27929E-3
MEAN_MOTION_DOT = .3222E-4
MEAN_MOTION_DDOT = 0

