SL-14 R/B               
1 21423U 91042B   25343.00031935  .00000723  00000+0  88656-4 0  9994
2 21423  82.4922 305.2296 0017107 173.8079 186.3350 14.81733121839646
ERS-1                   
1 21574U 91050A   25343.05262152  .00000476  00000+0  16694-3 0  9999
2 21574  98.7905 354.0151 0032936 110.6102 249.8622 14.39359690802699
ARIANE 40 R/B           
1 21610U 91050F   25343.11095936  .00000568  00000+0  18274-3 0  9999
2 21610  98.2168  33.6723 0003013  11.8247 348.3013 14.42808497805934
INTERCOSMOS 25          
1 21819U 91086A   25343.16783880  .00002008  00000+0  39851-3 0  9991
2 21819  82.6072   4.7354 1486847 312.0978  36.2621 12.11709945485724
SL-8 R/B                
1 21876U 92008B   25343.11804979  .00000155  00000+0  14383-3 0  9991
2 21876  82.9262 335.1405 0035397  29.7345  40.6823 13.75957708696964
SL-8 R/B                
1 21938U 92020B   25343.14141005  .00000126  00000+0  11511-3 0  9999
2 21938  82.9311 220.9894 0028661 188.3029 283.2148 13.75526119688681
USA 81                  
1 21949U 92023A   25343.05202646  .00000263  00000+0  90087-4 0  9991
2 21949  85.0084 183.7031 0001564  63.0602 297.0751 14.32324745 81812
COSMOS 2219             
1 22219U 92076A   25343.04617124 -.00000123  00000+0 -39626-4 0  9999
2 22219  71.0587 207.5540 0019015 331.8135  28.1956 14.14062644705565
SL-16 R/B               
1 22220U 92076B   25343.18653184 -.00000164  00000+0 -58012-4 0  9997
2 22220  71.0011  19.0172 0014928 239.0159 178.9675 14.16841163709018
COSMOS 2221             
1 22236U 92080A   25343.13847164  .00002702  00000+0  23972-3 0  9991
2 22236  82.5042   5.7722 0015836 132.7509 227.5048 14.95738312767259
SL-16 R/B               
1 22285U 92093B   25342.99852370  .00000193  00000+0  12317-3 0  9990
2 22285  71.0202 194.6493 0002080  83.3880 276.7480 14.15426822700320
COSMOS 2228             
1 22286U 92094A   25343.14700345  .00003222  00000+0  27929-3 0  9995
2 22286  82.5178 323.9719 0016352 244.5167 115.4364 14.96701237762518
